{
    "week": 293,
    "satellites": [
        {
            "Name": "BEIDOU-2 G6 (C02)",
            "Line1": "1 38953U 12059A   24325.09758198 -.00000174  00000+0  00000+0 0  9999",
            "Line2": "2 38953   2.9581  79.2188 0006888 289.7056 169.7966  1.00274342 44158",
            "SatelliteNumber": "38953",
            "Classification": "U",
            "LaunchYear": "12",
            "LaunchNumber": "059",
            "PieceOfLaunch": "A",
            "EpochYear": "24",
            "EpochDay": 325.09758198,
            "FirstDerivativeMeanMotion": -1.74e-06,
            "SecondDerivativeMeanMotion": "00000+0",
            "BSTAR": "00000+0",
            "SetNumber": "999",
            "Inclination": 2.9581,
            "RAAN": 79.2188,
            "Eccentricity": 0.0006888,
            "ArgumentOfPerigee": 289.7056,
            "MeanAnomaly": 169.7966,
            "MeanMotion": 1.00274342,
            "RevolutionNumber": "4415"
        },
        {
            "Name": "BEIDOU-3S IGSO-1S (C31)",
            "Line1": "1 40549U 15019A   24325.84495779 -.00000186  00000+0  00000+0 0  9991",
            "Line2": "2 40549  50.2828 302.3321 0035417 198.5703 320.3611  1.00269804 35314",
            "SatelliteNumber": "40549",
            "Classification": "U",
            "LaunchYear": "15",
            "LaunchNumber": "019",
            "PieceOfLaunch": "A",
            "EpochYear": "24",
            "EpochDay": 325.84495779,
            "FirstDerivativeMeanMotion": -1.86e-06,
            "SecondDerivativeMeanMotion": "00000+0",
            "BSTAR": "00000+0",
            "SetNumber": "999",
            "Inclination": 50.2828,
            "RAAN": 302.3321,
            "Eccentricity": 0.0035417,
            "ArgumentOfPerigee": 198.5703,
            "MeanAnomaly": 320.3611,
            "MeanMotion": 1.00269804,
            "RevolutionNumber": "3531"
        },
        {
            "Name": "BEIDOU-3S M2S (C58)",
            "Line1": "1 40748U 15037A   24324.24289085 -.00000077  00000+0  00000+0 0  9995",
            "Line2": "2 40748  55.3621 321.7559 0013187 259.2472 100.6094  1.86229120 63415",
            "SatelliteNumber": "40748",
            "Classification": "U",
            "LaunchYear": "15",
            "LaunchNumber": "037",
            "PieceOfLaunch": "A",
            "EpochYear": "24",
            "EpochDay": 324.24289085,
            "FirstDerivativeMeanMotion": -7.7e-07,
            "SecondDerivativeMeanMotion": "00000+0",
            "BSTAR": "00000+0",
            "SetNumber": "999",
            "Inclination": 55.3621,
            "RAAN": 321.7559,
            "Eccentricity": 0.0013187,
            "ArgumentOfPerigee": 259.2472,
            "MeanAnomaly": 100.6094,
            "MeanMotion": 1.8622912,
            "RevolutionNumber": "6341"
        },
        {
            "Name": "BEIDOU-3S M1S (C57)",
            "Line1": "1 40749U 15037B   24323.44217333 -.00000078  00000+0  00000+0 0  9995",
            "Line2": "2 40749  55.3654 321.7699 0004177 319.3167  40.6575  1.86227513 63393",
            "SatelliteNumber": "40749",
            "Classification": "U",
            "LaunchYear": "15",
            "LaunchNumber": "037",
            "PieceOfLaunch": "B",
            "EpochYear": "24",
            "EpochDay": 323.44217333,
            "FirstDerivativeMeanMotion": -7.8e-07,
            "SecondDerivativeMeanMotion": "00000+0",
            "BSTAR": "00000+0",
            "SetNumber": "999",
            "Inclination": 55.3654,
            "RAAN": 321.7699,
            "Eccentricity": 0.0004177,
            "ArgumentOfPerigee": 319.3167,
            "MeanAnomaly": 40.6575,
            "MeanMotion": 1.86227513,
            "RevolutionNumber": "6339"
        },
        {
            "Name": "BEIDOU-3S IGSO-2S (C56)",
            "Line1": "1 40938U 15053A   24325.78568755 -.00000153  00000+0  00000+0 0  9993",
            "Line2": "2 40938  50.1166 265.5718 0052062 189.2702 344.8782  1.00270309 33591",
            "SatelliteNumber": "40938",
            "Classification": "U",
            "LaunchYear": "15",
            "LaunchNumber": "053",
            "PieceOfLaunch": "A",
            "EpochYear": "24",
            "EpochDay": 325.78568755,
            "FirstDerivativeMeanMotion": -1.53e-06,
            "SecondDerivativeMeanMotion": "00000+0",
            "BSTAR": "00000+0",
            "SetNumber": "999",
            "Inclination": 50.1166,
            "RAAN": 265.5718,
            "Eccentricity": 0.0052062,
            "ArgumentOfPerigee": 189.2702,
            "MeanAnomaly": 344.8782,
            "MeanMotion": 1.00270309,
            "RevolutionNumber": "3359"
        },
        {
            "Name": "BEIDOU-2 IGSO-6 (C13)",
            "Line1": "1 41434U 16021A   24325.68240127 -.00000178  00000+0  00000+0 0  9997",
            "Line2": "2 41434  59.4118  43.7776 0054930 225.0813 133.3734  1.00284517 31727",
            "SatelliteNumber": "41434",
            "Classification": "U",
            "LaunchYear": "16",
            "LaunchNumber": "021",
            "PieceOfLaunch": "A",
            "EpochYear": "24",
            "EpochDay": 325.68240127,
            "FirstDerivativeMeanMotion": -1.78e-06,
            "SecondDerivativeMeanMotion": "00000+0",
            "BSTAR": "00000+0",
            "SetNumber": "999",
            "Inclination": 59.4118,
            "RAAN": 43.7776,
            "Eccentricity": 0.005493,
            "ArgumentOfPerigee": 225.0813,
            "MeanAnomaly": 133.3734,
            "MeanMotion": 1.00284517,
            "RevolutionNumber": "3172"
        },
        {
            "Name": "BEIDOU-2 G7 (C03)",
            "Line1": "1 41586U 16037A   24325.55967597 -.00000352  00000+0  00000+0 0  9999",
            "Line2": "2 41586   1.7544  67.0585 0006817 339.7465 325.2624  1.00267546  1137",
            "SatelliteNumber": "41586",
            "Classification": "U",
            "LaunchYear": "16",
            "LaunchNumber": "037",
            "PieceOfLaunch": "A",
            "EpochYear": "24",
            "EpochDay": 325.55967597,
            "FirstDerivativeMeanMotion": -3.52e-06,
            "SecondDerivativeMeanMotion": "00000+0",
            "BSTAR": "00000+0",
            "SetNumber": "999",
            "Inclination": 1.7544,
            "RAAN": 67.0585,
            "Eccentricity": 0.0006817,
            "ArgumentOfPerigee": 339.7465,
            "MeanAnomaly": 325.2624,
            "MeanMotion": 1.00267546,
            "RevolutionNumber": "113"
        },
        {
            "Name": "BEIDOU-3 M1 (C19)",
            "Line1": "1 43001U 17069A   24324.59180392 -.00000022  00000+0  00000+0 0  9996",
            "Line2": "2 43001  56.1929  82.0912 0007972 299.0650  60.8340  1.86231181 47902",
            "SatelliteNumber": "43001",
            "Classification": "U",
            "LaunchYear": "17",
            "LaunchNumber": "069",
            "PieceOfLaunch": "A",
            "EpochYear": "24",
            "EpochDay": 324.59180392,
            "FirstDerivativeMeanMotion": -2.2e-07,
            "SecondDerivativeMeanMotion": "00000+0",
            "BSTAR": "00000+0",
            "SetNumber": "999",
            "Inclination": 56.1929,
            "RAAN": 82.0912,
            "Eccentricity": 0.0007972,
            "ArgumentOfPerigee": 299.065,
            "MeanAnomaly": 60.834,
            "MeanMotion": 1.86231181,
            "RevolutionNumber": "4790"
        },
        {
            "Name": "BEIDOU-3 M2 (C20)",
            "Line1": "1 43002U 17069B   24324.52938258 -.00000022  00000+0  00000+0 0  9992",
            "Line2": "2 43002  56.1918  82.1300 0005568 330.0366  29.9100  1.86230869 47892",
            "SatelliteNumber": "43002",
            "Classification": "U",
            "LaunchYear": "17",
            "LaunchNumber": "069",
            "PieceOfLaunch": "B",
            "EpochYear": "24",
            "EpochDay": 324.52938258,
            "FirstDerivativeMeanMotion": -2.2e-07,
            "SecondDerivativeMeanMotion": "00000+0",
            "BSTAR": "00000+0",
            "SetNumber": "999",
            "Inclination": 56.1918,
            "RAAN": 82.13,
            "Eccentricity": 0.0005568,
            "ArgumentOfPerigee": 330.0366,
            "MeanAnomaly": 29.91,
            "MeanMotion": 1.86230869,
            "RevolutionNumber": "4789"
        },
        {
            "Name": "BEIDOU-3 M7 (C27)",
            "Line1": "1 43107U 18003A   24325.35098864 -.00000078  00000+0  00000+0 0  9990",
            "Line2": "2 43107  54.8198 322.2406 0002272  63.0970 296.9330  1.86232455 46669",
            "SatelliteNumber": "43107",
            "Classification": "U",
            "LaunchYear": "18",
            "LaunchNumber": "003",
            "PieceOfLaunch": "A",
            "EpochYear": "24",
            "EpochDay": 325.35098864,
            "FirstDerivativeMeanMotion": -7.8e-07,
            "SecondDerivativeMeanMotion": "00000+0",
            "BSTAR": "00000+0",
            "SetNumber": "999",
            "Inclination": 54.8198,
            "RAAN": 322.2406,
            "Eccentricity": 0.0002272,
            "ArgumentOfPerigee": 63.097,
            "MeanAnomaly": 296.933,
            "MeanMotion": 1.86232455,
            "RevolutionNumber": "4666"
        }
    ]
}